[{"OBJECT_NAME":"SITRO-AIS 5 (KATYS)","OBJECT_ID":"2023-091L","EPOCH":"2026-03-09T22:36:44.932608","MEAN_MOTION":15.27079182,"ECCENTRICITY":0.00133776,"INCLINATION":97.5176,"RA_OF_ASC_NODE":132.0172,"ARG_OF_PERICENTER":94.5677,"MEAN_ANOMALY":265.709,"EPHEMERIS_TYPE":0,"CLASSIFICATION_TYPE":"U","NORAD_CAT_ID":57176,"ELEMENT_SET_NO":999,"REV_AT_EPOCH":14918,"BSTAR":0.00057530772,"MEAN_MOTION_DOT":0.00015262,"MEAN_MOTION_DDOT":0},{"OBJECT_NAME":"STARLINK-31541","OBJECT_ID":"2024-082C","EPOCH":"2026-03-09T05:29:44.502720","MEAN_MOTION":15.2757549,"ECCENTRICITY":0.00010025,"INCLINATION":42.9989,"RA_OF_ASC_NODE":135.2917,"ARG_OF_PERICENTER":183.1958,"MEAN_ANOMALY":176.8888,"EPHEMERIS_TYPE":0,"CLASSIFICATION_TYPE":"U","NORAD_CAT_ID":59633,"ELEMENT_SET_NO":999,"REV_AT_EPOCH":10501,"BSTAR":-1.9670547e-5,"MEAN_MOTION_DOT":-8.03e-6,"MEAN_MOTION_DDOT":0}]
